CCSDS_OMM_VERS = 2.0
CREATION_DATE  = 
ORIGINATOR     = 

OBJECT_NAME    = STARLINK-35238
OBJECT_ID      = 2025-221U
CENTER_NAME    = EARTH
REF_FRAME      = TEME
TIME_SYSTEM    = UTC
MEAN_ELEMENT_THEORY = SGP/SGP4

EPOCH          = 2025-10-26T12:56:47.336928
MEAN_MOTION    = 15.49361151
ECCENTRICITY   = .0000976
INCLINATION    = 53.1595
RA_OF_ASC_NODE = 352.9308
ARG_OF_PERICENTER = 236.9946
MEAN_ANOMALY   = 123.0970

EPHEMERIS_TYPE = 0
CLASSIFICATION_TYPE = U
NORAD_CAT_ID   = 65841
ELEMENT_SET_NO = 999
REV_AT_EPOCH   = 417
BSTAR          = .1579722E-2
MEAN_MOTION_DOT = .88574E-3
MEAN_MOTION_DDOT = 0

CCSDS_OMM_VERS = 2.0
CREATION_DATE  = 
ORIGINATOR     = 

OBJECT_NAME    = STARLINK-35298
OBJECT_ID      = 2025-221V
CENTER_NAME    = EARTH
REF_FRAME      = TEME
TIME_SYSTEM    = UTC
MEAN_ELEMENT_THEORY = SGP/SGP4

EPOCH          = 2025-10-26T12:57:17.777376
MEAN_MOTION    = 15.49329133
ECCENTRICITY   = .00013007
INCLINATION    = 53.1596
RA_OF_ASC_NODE = 352.9337
ARG_OF_PERICENTER = 67.1296
MEAN_ANOMALY   = 292.9850

EPHEMERIS_TYPE = 0
CLASSIFICATION_TYPE = U
NORAD_CAT_ID   = 65842
ELEMENT_SET_NO = 999
REV_AT_EPOCH   = 417
BSTAR          = .18299734E-2
MEAN_MOTION_DOT = .102749E-2
MEAN_MOTION_DDOT = 0

CCSDS_OMM_VERS = 2.0
CREATION_DATE  = 
ORIGINATOR     = 

OBJECT_NAME    = STARLINK-35301
OBJECT_ID      = 2025-221W
CENTER_NAME    = EARTH
REF_FRAME      = TEME
TIME_SYSTEM    = UTC
MEAN_ELEMENT_THEORY = SGP/SGP4

EPOCH          = 2025-10-26T11:22:55.005600
MEAN_MOTION    = 15.49350537
ECCENTRICITY   = .00010086
INCLINATION    = 53.1597
RA_OF_ASC_NODE = 353.2341
ARG_OF_PERICENTER = 67.4350
MEAN_ANOMALY   = 292.6766

EPHEMERIS_TYPE = 0
CLASSIFICATION_TYPE = U
NORAD_CAT_ID   = 65843
ELEMENT_SET_NO = 999
REV_AT_EPOCH   = 416
BSTAR          = .20439554E-2
MEAN_MOTION_DOT = .115085E-2
MEAN_MOTION_DDOT = 0

CCSDS_OMM_VERS = 2.0
CREATION_DATE  = 
ORIGINATOR     = 

OBJECT_NAME    = STARLINK-35148
OBJECT_ID      = 2025-221X
CENTER_NAME    = EARTH
REF_FRAME      = TEME
TIME_SYSTEM    = UTC
MEAN_ELEMENT_THEORY = SGP/SGP4

EPOCH          = 2025-10-26T12:56:18.398112
MEAN_MOTION    = 15.49327825
ECCENTRICITY   = .00015283
INCLINATION    = 53.1599
RA_OF_ASC_NODE = 352.9281
ARG_OF_PERICENTER = 57.3982
MEAN_ANOMALY   = 302.7175

EPHEMERIS_TYPE = 0
CLASSIFICATION_TYPE = U
NORAD_CAT_ID   = 65844
ELEMENT_SET_NO = 999
REV_AT_EPOCH   = 417
BSTAR          = .16918405E-2
MEAN_MOTION_DOT = .94858E-3
MEAN_MOTION_DDOT = 0

CCSDS_OMM_VERS = 2.0
CREATION_DATE  = 
ORIGINATOR     = 

OBJECT_NAME    = STARLINK-35302
OBJECT_ID      = 2025-221Y
CENTER_NAME    = EARTH
REF_FRAME      = TEME
TIME_SYSTEM    = UTC
MEAN_ELEMENT_THEORY = SGP/SGP4

EPOCH          = 2025-10-26T20:39:46.341792
MEAN_MOTION    = 15.49341467
ECCENTRICITY   = .000126
INCLINATION    = 53.1593
RA_OF_ASC_NODE = 351.3821
ARG_OF_PERICENTER = 87.5786
MEAN_ANOMALY   = 272.5367

EPHEMERIS_TYPE = 0
CLASSIFICATION_TYPE = U
NORAD_CAT_ID   = 65845
ELEMENT_SET_NO = 999
REV_AT_EPOCH   = 422
BSTAR          = .12781E-2
MEAN_MOTION_DOT = .7137E-3
MEAN_MOTION_DDOT = 0

CCSDS_OMM_VERS = 2.0
CREATION_DATE  = 
ORIGINATOR     = 

OBJECT_NAME    = STARLINK-35290
OBJECT_ID      = 2025-221Z
CENTER_NAME    = EARTH
REF_FRAME      = TEME
TIME_SYSTEM    = UTC
MEAN_ELEMENT_THEORY = SGP/SGP4

EPOCH          = 2025-10-27T05:56:07.964160
MEAN_MOTION    = 15.49356837
ECCENTRICITY   = .00016158
INCLINATION    = 53.1596
RA_OF_ASC_NODE = 349.5281
ARG_OF_PERICENTER = 96.3498
MEAN_ANOMALY   = 263.7696

EPHEMERIS_TYPE = 0
CLASSIFICATION_TYPE = U
NORAD_CAT_ID   = 65846
ELEMENT_SET_NO = 999
REV_AT_EPOCH   = 428
BSTAR          = .20527612E-2
MEAN_MOTION_DOT = .115617E-2
MEAN_MOTION_DDOT = 0

CCSDS_OMM_VERS = 2.0
CREATION_DATE  = 
ORIGINATOR     = 

OBJECT_NAME    = STARLINK-35262
OBJECT_ID      = 2025-221AA
CENTER_NAME    = EARTH
REF_FRAME      = TEME
TIME_SYSTEM    = UTC
MEAN_ELEMENT_THEORY = SGP/SGP4

EPOCH          = 2025-10-26T20:37:47.020800
MEAN_MOTION    = 15.49364840
ECCENTRICITY   = .0000666
INCLINATION    = 53.1594
RA_OF_ASC_NODE = 351.3715
ARG_OF_PERICENTER = 248.4580
MEAN_ANOMALY   = 111.6359

EPHEMERIS_TYPE = 0
CLASSIFICATION_TYPE = U
NORAD_CAT_ID   = 65847
ELEMENT_SET_NO = 999
REV_AT_EPOCH   = 557
BSTAR          = .18895E-2
MEAN_MOTION_DOT = .106285E-2
MEAN_MOTION_DDOT = 0

CCSDS_OMM_VERS = 2.0
CREATION_DATE  = 
ORIGINATOR     = 

OBJECT_NAME    = STARLINK-35308
OBJECT_ID      = 2025-221AB
CENTER_NAME    = EARTH
REF_FRAME      = TEME
TIME_SYSTEM    = UTC
MEAN_ELEMENT_THEORY = SGP/SGP4

EPOCH          = 2025-10-26T20:39:16.341120
MEAN_MOTION    = 15.49338390
ECCENTRICITY   = .0000377
INCLINATION    = 53.1592
RA_OF_ASC_NODE = 351.3792
ARG_OF_PERICENTER = 101.8270
MEAN_ANOMALY   = 258.2782

EPHEMERIS_TYPE = 0
CLASSIFICATION_TYPE = U
NORAD_CAT_ID   = 65848
ELEMENT_SET_NO = 999
REV_AT_EPOCH   = 557
BSTAR          = .12956E-2
MEAN_MOTION_DOT = .72351E-3
MEAN_MOTION_DDOT = 0

CCSDS_OMM_VERS = 2.0
CREATION_DATE  = 
ORIGINATOR     = 

OBJECT_NAME    = STARLINK-35231
OBJECT_ID      = 2025-221AC
CENTER_NAME    = EARTH
REF_FRAME      = TEME
TIME_SYSTEM    = UTC
MEAN_ELEMENT_THEORY = SGP/SGP4

EPOCH          = 2025-10-26T20:38:17.368800
MEAN_MOTION    = 15.49341844
ECCENTRICITY   = .0001277
INCLINATION    = 53.1597
RA_OF_ASC_NODE = 351.3742
ARG_OF_PERICENTER = 80.8226
MEAN_ANOMALY   = 279.2927

EPHEMERIS_TYPE = 0
CLASSIFICATION_TYPE = U
NORAD_CAT_ID   = 65849
ELEMENT_SET_NO = 999
REV_AT_EPOCH   = 557
BSTAR          = .12421E-2
MEAN_MOTION_DOT = .6933E-3
MEAN_MOTION_DDOT = 0

CCSDS_OMM_VERS = 2.0
CREATION_DATE  = 
ORIGINATOR     = 

OBJECT_NAME    = STARLINK-35252
OBJECT_ID      = 2025-221AD
CENTER_NAME    = EARTH
REF_FRAME      = TEME
TIME_SYSTEM    = UTC
MEAN_ELEMENT_THEORY = SGP/SGP4

EPOCH          = 2025-10-26T12:52:50.653632
MEAN_MOTION    = 15.49310503
ECCENTRICITY   = .00013789
INCLINATION    = 53.1598
RA_OF_ASC_NODE = 352.9127
ARG_OF_PERICENTER = 71.3180
MEAN_ANOMALY   = 288.7979

EPHEMERIS_TYPE = 0
CLASSIFICATION_TYPE = U
NORAD_CAT_ID   = 65850
ELEMENT_SET_NO = 999
REV_AT_EPOCH   = 552
BSTAR          = .16055926E-2
MEAN_MOTION_DOT = .89887E-3
MEAN_MOTION_DDOT = 0

CCSDS_OMM_VERS = 2.0
CREATION_DATE  = 
ORIGINATOR     = 

OBJECT_NAME    = SHIYAN-30 01
OBJECT_ID      = 2025-222A
CENTER_NAME    = EARTH
REF_FRAME      = TEME
TIME_SYSTEM    = UTC
MEAN_ELEMENT_THEORY = SGP/SGP4

EPOCH          = 2025-10-27T06:13:27.485760
MEAN_MOTION    = 14.92986226
ECCENTRICITY   = .00060182
INCLINATION    = 34.9880
RA_OF_ASC_NODE = 219.7791
ARG_OF_PERICENTER = 215.4772
MEAN_ANOMALY   = 144.5534

EPHEMERIS_TYPE = 0
CLASSIFICATION_TYPE = U
NORAD_CAT_ID   = 65851
ELEMENT_SET_NO = 999
REV_AT_EPOCH   = 421
BSTAR          = .38685278E-3
MEAN_MOTION_DOT = .4073E-4
MEAN_MOTION_DDOT = 0

CCSDS_OMM_VERS = 2.0
CREATION_DATE  = 
ORIGINATOR     = 

OBJECT_NAME    = SHIYAN-30 02
OBJECT_ID      = 2025-222B
CENTER_NAME    = EARTH
REF_FRAME      = TEME
TIME_SYSTEM    = UTC
MEAN_ELEMENT_THEORY = SGP/SGP4

EPOCH          = 2025-10-27T06:12:27.937152
MEAN_MOTION    = 14.92987191
ECCENTRICITY   = .00072919
INCLINATION    = 34.9966
RA_OF_ASC_NODE = 219.7852
ARG_OF_PERICENTER = 217.3071
MEAN_ANOMALY   = 142.7128

EPHEMERIS_TYPE = 0
CLASSIFICATION_TYPE = U
NORAD_CAT_ID   = 65852
ELEMENT_SET_NO = 999
REV_AT_EPOCH   = 419
BSTAR          = .38396236E-3
MEAN_MOTION_DOT = .4043E-4
MEAN_MOTION_DDOT = 0

